STARLINK-4144           
1 53257U 22086R   26068.61394590 -.00000503  00000+0 -13508-4 0  9999
2 53257  53.2167 194.4603 0001162  98.4624 261.6500 15.08843490201058
PRSC-S1                 
1 65055U 25164A   26068.60758212  .00007316  00000+0  46631-3 0  9991
2 65055  41.1290 129.3637 0004466 348.3012  11.7698 15.08919510 33403
